CCSDS_OMM_VERS = 2.0
CREATION_DATE  = 
ORIGINATOR     = 

OBJECT_NAME    = IDEFIX & ARIANE 42P R/B
OBJECT_ID      = 2002-021B
CENTER_NAME    = EARTH
REF_FRAME      = TEME
TIME_SYSTEM    = UTC
MEAN_ELEMENT_THEORY = SGP/SGP4

EPOCH          = 2026-02-28T09:44:59.445312
MEAN_MOTION    = 14.31018364
ECCENTRICITY   = .0011058
INCLINATION    = 98.5860
RA_OF_ASC_NODE = 358.1240
ARG_OF_PERICENTER = 210.5667
MEAN_ANOMALY   = 149.4873

EPHEMERIS_TYPE = 0
CLASSIFICATION_TYPE = U
NORAD_CAT_ID   = 27422
ELEMENT_SET_NO = 999
REV_AT_EPOCH   = 24269
BSTAR          = .1271E-3
MEAN_MOTION_DOT = .291E-5
MEAN_MOTION_DDOT = 0

CCSDS_OMM_VERS = 2.0
CREATION_DATE  = 
ORIGINATOR     = 

OBJECT_NAME    = AQUA
OBJECT_ID      = 2002-022A
CENTER_NAME    = EARTH
REF_FRAME      = TEME
TIME_SYSTEM    = UTC
MEAN_ELEMENT_THEORY = SGP/SGP4

EPOCH          = 2026-02-28T12:34:47.385120
MEAN_MOTION    = 14.61950264
ECCENTRICITY   = .0000765
INCLINATION    = 98.4157
RA_OF_ASC_NODE = 26.7234
ARG_OF_PERICENTER = 51.9428
MEAN_ANOMALY   = 65.8391

EPHEMERIS_TYPE = 0
CLASSIFICATION_TYPE = U
NORAD_CAT_ID   = 27424
ELEMENT_SET_NO = 999
REV_AT_EPOCH   = 26739
BSTAR          = .24047E-3
MEAN_MOTION_DOT = .1155E-4
MEAN_MOTION_DDOT = 0

CCSDS_OMM_VERS = 2.0
CREATION_DATE  = 
ORIGINATOR     = 

OBJECT_NAME    = CZ-4B R/B
OBJECT_ID      = 2002-024C
CENTER_NAME    = EARTH
REF_FRAME      = TEME
TIME_SYSTEM    = UTC
MEAN_ELEMENT_THEORY = SGP/SGP4

EPOCH          = 2026-02-28T08:56:25.282176
MEAN_MOTION    = 14.14545801
ECCENTRICITY   = .0050889
INCLINATION    = 98.8861
RA_OF_ASC_NODE = 112.8253
ARG_OF_PERICENTER = 50.3983
MEAN_ANOMALY   = 321.6061

EPHEMERIS_TYPE = 0
CLASSIFICATION_TYPE = U
NORAD_CAT_ID   = 27432
ELEMENT_SET_NO = 999
REV_AT_EPOCH   = 22792
BSTAR          = .46995E-4
MEAN_MOTION_DOT = .47E-6
MEAN_MOTION_DDOT = 0

CCSDS_OMM_VERS = 2.0
CREATION_DATE  = 
ORIGINATOR     = 

OBJECT_NAME    = MIDORI II (ADEOS-II)
OBJECT_ID      = 2002-056A
CENTER_NAME    = EARTH
REF_FRAME      = TEME
TIME_SYSTEM    = UTC
MEAN_ELEMENT_THEORY = SGP/SGP4

EPOCH          = 2026-02-28T11:49:59.335968
MEAN_MOTION    = 14.29276689
ECCENTRICITY   = .0001903
INCLINATION    = 98.7751
RA_OF_ASC_NODE = 17.9082
ARG_OF_PERICENTER = 56.1568
MEAN_ANOMALY   = 303.9795

EPHEMERIS_TYPE = 0
CLASSIFICATION_TYPE = U
NORAD_CAT_ID   = 27597
ELEMENT_SET_NO = 999
REV_AT_EPOCH   = 20898
BSTAR          = .13878E-3
MEAN_MOTION_DOT = .308E-5
MEAN_MOTION_DDOT = 0

CCSDS_OMM_VERS = 2.0
CREATION_DATE  = 
ORIGINATOR     = 

OBJECT_NAME    = H-2A R/B
OBJECT_ID      = 2002-056E
CENTER_NAME    = EARTH
REF_FRAME      = TEME
TIME_SYSTEM    = UTC
MEAN_ELEMENT_THEORY = SGP/SGP4

EPOCH          = 2026-02-28T12:07:35.160384
MEAN_MOTION    = 14.33753532
ECCENTRICITY   = .0069921
INCLINATION    = 98.3184
RA_OF_ASC_NODE = 20.2214
ARG_OF_PERICENTER = 188.0181
MEAN_ANOMALY   = 283.8366

EPHEMERIS_TYPE = 0
CLASSIFICATION_TYPE = U
NORAD_CAT_ID   = 27601
ELEMENT_SET_NO = 999
REV_AT_EPOCH   = 21279
BSTAR          = .11621E-3
MEAN_MOTION_DOT = .29E-5
MEAN_MOTION_DDOT = 0

CCSDS_OMM_VERS = 2.0
CREATION_DATE  = 
ORIGINATOR     = 

OBJECT_NAME    = CZ-4B R/B
OBJECT_ID      = 2003-049C
CENTER_NAME    = EARTH
REF_FRAME      = TEME
TIME_SYSTEM    = UTC
MEAN_ELEMENT_THEORY = SGP/SGP4

EPOCH          = 2026-02-28T10:38:53.615904
MEAN_MOTION    = 14.55009301
ECCENTRICITY   = .0047003
INCLINATION    = 98.6869
RA_OF_ASC_NODE = 53.9864
ARG_OF_PERICENTER = 259.7498
MEAN_ANOMALY   = 99.8396

EPHEMERIS_TYPE = 0
CLASSIFICATION_TYPE = U
NORAD_CAT_ID   = 28059
ELEMENT_SET_NO = 999
REV_AT_EPOCH   = 18525
BSTAR          = .11843E-3
MEAN_MOTION_DOT = .465E-5
MEAN_MOTION_DDOT = 0

CCSDS_OMM_VERS = 2.0
CREATION_DATE  = 
ORIGINATOR     = 

OBJECT_NAME    = CZ-2C R/B
OBJECT_ID      = 2004-012C
CENTER_NAME    = EARTH
REF_FRAME      = TEME
TIME_SYSTEM    = UTC
MEAN_ELEMENT_THEORY = SGP/SGP4

EPOCH          = 2026-02-28T03:20:21.740064
MEAN_MOTION    = 15.63261075
ECCENTRICITY   = .00136276
INCLINATION    = 97.7260
RA_OF_ASC_NODE = 123.5351
ARG_OF_PERICENTER = 348.4673
MEAN_ANOMALY   = 11.6270

EPHEMERIS_TYPE = 0
CLASSIFICATION_TYPE = U
NORAD_CAT_ID   = 28222
ELEMENT_SET_NO = 999
REV_AT_EPOCH   = 20278
BSTAR          = .58875418E-3
MEAN_MOTION_DOT = .54305E-3
MEAN_MOTION_DDOT = 0

CCSDS_OMM_VERS = 2.0
CREATION_DATE  = 
ORIGINATOR     = 

OBJECT_NAME    = SL-16 R/B
OBJECT_ID      = 2004-021B
CENTER_NAME    = EARTH
REF_FRAME      = TEME
TIME_SYSTEM    = UTC
MEAN_ELEMENT_THEORY = SGP/SGP4

EPOCH          = 2026-02-27T23:33:25.171776
MEAN_MOTION    = 14.14599717
ECCENTRICITY   = .00035348
INCLINATION    = 70.9990
RA_OF_ASC_NODE = 252.8671
ARG_OF_PERICENTER = 30.7115
MEAN_ANOMALY   = 329.4214

EPHEMERIS_TYPE = 0
CLASSIFICATION_TYPE = U
NORAD_CAT_ID   = 28353
ELEMENT_SET_NO = 999
REV_AT_EPOCH   = 12146
BSTAR          = .24561634E-4
MEAN_MOTION_DOT = 0
MEAN_MOTION_DDOT = 0

CCSDS_OMM_VERS = 2.0
CREATION_DATE  = 
ORIGINATOR     = 

OBJECT_NAME    = CZ-4B R/B
OBJECT_ID      = 2004-035C
CENTER_NAME    = EARTH
REF_FRAME      = TEME
TIME_SYSTEM    = UTC
MEAN_ELEMENT_THEORY = SGP/SGP4

EPOCH          = 2026-02-28T08:29:59.798112
MEAN_MOTION    = 15.28864029
ECCENTRICITY   = .0032171
INCLINATION    = 97.3519
RA_OF_ASC_NODE = 93.7097
ARG_OF_PERICENTER = 5.2563
MEAN_ANOMALY   = 354.9008

EPHEMERIS_TYPE = 0
CLASSIFICATION_TYPE = U
NORAD_CAT_ID   = 28415
ELEMENT_SET_NO = 999
REV_AT_EPOCH   = 17848
BSTAR          = .30094E-3
MEAN_MOTION_DOT = .8496E-4
MEAN_MOTION_DDOT = 0

CCSDS_OMM_VERS = 2.0
CREATION_DATE  = 
ORIGINATOR     = 

OBJECT_NAME    = CZ-2C R/B
OBJECT_ID      = 2004-046B
CENTER_NAME    = EARTH
REF_FRAME      = TEME
TIME_SYSTEM    = UTC
MEAN_ELEMENT_THEORY = SGP/SGP4

EPOCH          = 2026-02-28T07:11:58.183008
MEAN_MOTION    = 14.26988578
ECCENTRICITY   = .0139309
INCLINATION    = 98.1988
RA_OF_ASC_NODE = 334.8678
ARG_OF_PERICENTER = 182.1429
MEAN_ANOMALY   = 177.9173

EPHEMERIS_TYPE = 0
CLASSIFICATION_TYPE = U
NORAD_CAT_ID   = 28480
ELEMENT_SET_NO = 999
REV_AT_EPOCH   = 10716
BSTAR          = .62713E-4
MEAN_MOTION_DOT = .128E-5
MEAN_MOTION_DDOT = 0

CCSDS_OMM_VERS = 2.0
CREATION_DATE  = 
ORIGINATOR     = 

OBJECT_NAME    = ARIANE 5 R/B
OBJECT_ID      = 2004-049H
CENTER_NAME    = EARTH
REF_FRAME      = TEME
TIME_SYSTEM    = UTC
MEAN_ELEMENT_THEORY = SGP/SGP4

EPOCH          = 2026-02-28T11:17:33.873216
MEAN_MOTION    = 14.85245543
ECCENTRICITY   = .0084606
INCLINATION    = 98.2612
RA_OF_ASC_NODE = 227.5835
ARG_OF_PERICENTER = 21.7787
MEAN_ANOMALY   = 338.6989

EPHEMERIS_TYPE = 0
CLASSIFICATION_TYPE = U
NORAD_CAT_ID   = 28499
ELEMENT_SET_NO = 999
REV_AT_EPOCH   = 14442
BSTAR          = .10084E-3
MEAN_MOTION_DOT = .857E-5
MEAN_MOTION_DDOT = 0

CCSDS_OMM_VERS = 2.0
CREATION_DATE  = 
ORIGINATOR     = 

OBJECT_NAME    = CZ-2D R/B
OBJECT_ID      = 2005-024B
CENTER_NAME    = EARTH
REF_FRAME      = TEME
TIME_SYSTEM    = UTC
MEAN_ELEMENT_THEORY = SGP/SGP4

EPOCH          = 2026-02-28T11:17:33.071424
MEAN_MOTION    = 15.59202903
ECCENTRICITY   = .0007096
INCLINATION    = 97.3607
RA_OF_ASC_NODE = 74.2852
ARG_OF_PERICENTER = 69.0597
MEAN_ANOMALY   = 291.1418

EPHEMERIS_TYPE = 0
CLASSIFICATION_TYPE = U
NORAD_CAT_ID   = 28738
ELEMENT_SET_NO = 999
REV_AT_EPOCH   = 13834
BSTAR          = .50925E-3
MEAN_MOTION_DOT = .39976E-3
MEAN_MOTION_DDOT = 0

