IDEFIX & ARIANE 42P R/B 
1 27422U 02021B   26059.40624358  .00000291  00000+0  12710-3 0  9991
2 27422  98.5860 358.1240 0011058 210.5667 149.4873 14.31018364242690
AQUA                    
1 27424U 02022A   26059.52415955  .00001155  00000+0  24047-3 0  9994
2 27424  98.4157  26.7234 0000765  51.9428  65.8391 14.61950264267393
CZ-4B R/B               
1 27432U 02024C   26059.37251484  .00000047  00000+0  46995-4 0  9999
2 27432  98.8861 112.8253 0050889  50.3983 321.6061 14.14545801227924
MIDORI II (ADEOS-II)    
1 27597U 02056A   26059.49304787  .00000308  00000+0  13878-3 0  9997
2 27597  98.7751  17.9082 0001903  56.1568 303.9795 14.29276689208987
H-2A R/B                
1 27601U 02056E   26059.50526806  .00000290  00000+0  11621-3 0  9997
2 27601  98.3184  20.2214 0069921 188.0181 283.8366 14.33753532212799
CZ-4B R/B               
1 28059U 03049C   26059.44367611  .00000465  00000+0  11843-3 0  9998
2 28059  98.6869  53.9864 0047003 259.7498  99.8396 14.55009301185258
CZ-2C R/B               
1 28222U 04012C   26059.13914051  .00054305  00000+0  58875-3 0  9991
2 28222  97.7260 123.5351 0013627 348.4673  11.6270 15.63261075202785
SL-16 R/B               
1 28353U 04021B   26058.98154134  .00000000  00000+0  24562-4 0  9996
2 28353  70.9990 252.8671 0003534  30.7115 329.4214 14.14599717121467
CZ-4B R/B               
1 28415U 04035C   26059.35416433  .00008496  00000+0  30094-3 0  9998
2 28415  97.3519  93.7097 0032171   5.2563 354.9008 15.28864029178488
CZ-2C R/B               
1 28480U 04046B   26059.29997897  .00000128  00000+0  62713-4 0  9991
2 28480  98.1988 334.8678 0139309 182.1429 177.9173 14.26988578107166
ARIANE 5 R/B            
1 28499U 04049H   26059.47053094  .00000857  00000+0  10084-3 0  9998
2 28499  98.2612 227.5835 0084606  21.7787 338.6989 14.85245543144422
CZ-2D R/B               
1 28738U 05024B   26059.47052166  .00039976  00000+0  50925-3 0  9999
2 28738  97.3607  74.2852 0007096  69.0597 291.1418 15.59202903138349
